ACS3                    
1 59588U 24077B   24237.13646006  .00000055  00000+0  98931-4 0  9992
2 59588  97.4009 289.5202 0018813 268.4182  91.4814 13.67700196 16695
